{"type":"FeatureCollection","features":[{"type":"Feature","properties":{"id":"SANTANA","nome":"Santana"},"geometry":{"type":"Polygon","coordinates":[[[-46.61893,-23.51884],[-46.6243,-23.51942],[-46.64108,-23.51851],[-46.65391,-23.51678],[-46.65379,-23.51594],[-46.64984,-23.51556],[-46.65061,-23.50997],[-46.64948,-23.50971],[-46.65016,-23.50886],[-46.64903,-23.50834],[-46.6498,-23.50779],[-46.64335,-23.50649],[-46.64112,-23.5049],[-46.64349,-23.50126],[-46.64525,-23.49605],[-46.64874,-23.49399],[-46.64832,-23.49313],[-46.65079,-23.49026],[-46.65125,-23.48882],[-46.64772,-23.48822],[-46.64546,-23.48704],[-46.64011,-23.48665],[-46.63811,-23.48563],[-46.63583,-23.48346],[-46.63016,-23.48277],[-46.62821,-23.48132],[-46.62618,-23.48035],[-46.62468,-23.48044],[-46.62225,-23.4823],[-46.6219,-23.47925],[-46.61236,-23.48119],[-46.61388,-23.48363],[-46.61552,-23.48491],[-46.61142,-23.4875],[-46.61103,-23.48731],[-46.60948,-23.48795],[-46.61151,-23.49258],[-46.61241,-23.49701],[-46.61548,-23.50118],[-46.615,-23.50442],[-46.61538,-23.50822],[-46.61611,-23.50904],[-46.62117,-23.51152],[-46.62104,-23.51439],[-46.61891,-23.51728],[-46.61893,-23.51884]]]}},{"type":"Feature","properties":{"id":"TUCURUVI","nome":"Tucuruvi"},"geometry":{"type":"Polygon","coordinates":[[[-46.61352,-23.46213],[-46.61314,-23.46174],[-46.61218,-23.46215],[-46.61071,-23.46418],[-46.60968,-23.46368],[-46.60501,-23.46298],[-46.60445,-23.46256],[-46.60341,-23.4631],[-46.60332,-23.46289],[-46.60235,-23.46379],[-46.60066,-23.46387],[-46.5994,-23.46517],[-46.59822,-23.46534],[-46.59298,-23.4684],[-46.59177,-23.46871],[-46.5903,-23.46816],[-46.5897,-23.47006],[-46.58922,-23.46987],[-46.58512,-23.47393],[-46.58457,-23.47546],[-46.58483,-23.477],[-46.5835,-23.47809],[-46.58827,-23.48105],[-46.59013,-23.4818],[-46.5915,-23.48289],[-46.5933,-23.4858],[-46.595,-23.48941],[-46.59813,-23.49111],[-46.59856,-23.49166],[-46.60641,-23.49314],[-46.61151,-23.49258],[-46.60948,-23.48794],[-46.61104,-23.48731],[-46.61142,-23.4875],[-46.61552,-23.48491],[-46.61388,-23.48363],[-46.61229,-23.4813],[-46.6219,-23.47925],[-46.61974,-23.47625],[-46.61853,-23.4736],[-46.61908,-23.47332],[-46.61932,-23.47382],[-46.62159,-23.47314],[-46.62207,-23.47326],[-46.62786,-23.47203],[-46.62788,-23.47148],[-46.62754,-23.47141],[-46.62738,-23.4709],[-46.62753,-23.47003],[-46.6284,-23.46953],[-46.6304,-23.46945],[-46.63082,-23.46716],[-46.62994,-23.46605],[-46.62974,-23.46504],[-46.62902,-23.46438],[-46.62947,-23.46213],[-46.62858,-23.46265],[-46.62754,-23.46384],[-46.62471,-23.46276],[-46.62254,-23.46362],[-46.61944,-23.46347],[-46.61667,-23.46461],[-46.6167,-23.46378],[-46.61559,-23.46401],[-46.61427,-23.46191],[-46.61352,-23.46213]]]}},{"type":"Feature","properties":{"id":"MANDAQUI","nome":"Mandaqui"},"geometry":{"type":"Polygon","coordinates":[[[-46.6547,-23.43063],[-46.6508,-23.42854],[-46.6492,-23.42911],[-46.64692,-23.42911],[-46.64542,-23.42837],[-46.64387,-23.42824],[-46.64256,-23.42769],[-46.64052,-23.42765],[-46.63904,-23.42724],[-46.63811,-23.42728],[-46.63692,-23.42797],[-46.63563,-23.42774],[-46.63478,-23.42881],[-46.6338,-23.42829],[-46.63385,-23.4302],[-46.63425,-23.431],[-46.63384,-23.4316],[-46.63415,-23.43312],[-46.63268,-23.43555],[-46.63294,-23.43731],[-46.63186,-23.43787],[-46.63158,-23.4394],[-46.63349,-23.44234],[-46.63558,-23.44378],[-46.6366,-23.4451],[-46.63669,-23.44569],[-46.6377,-23.44673],[-46.63786,-23.44801],[-46.63753,-23.44843],[-46.6366,-23.4483],[-46.63597,-23.44902],[-46.6367,-23.45006],[-46.63646,-23.45147],[-46.63682,-23.45252],[-46.63592,-23.45462],[-46.63428,-23.45677],[-46.63353,-23.45924],[-46.63081,-23.45982],[-46.63024,-23.46048],[-46.63017,-23.4617],[-46.62938,-23.46245],[-46.62902,-23.46438],[-46.62974,-23.46504],[-46.62997,-23.46611],[-46.63082,-23.46711],[-46.6304,-23.46945],[-46.6284,-23.46953],[-46.62753,-23.47003],[-46.62738,-23.4709],[-46.62754,-23.47141],[-46.62788,-23.47148],[-46.62786,-23.47203],[-46.62207,-23.47326],[-46.62159,-23.47314],[-46.61932,-23.47382],[-46.61908,-23.47332],[-46.61853,-23.4736],[-46.61974,-23.47625],[-46.62189,-23.47923],[-46.62225,-23.4823],[-46.62468,-23.48044],[-46.62618,-23.48035],[-46.62821,-23.48132],[-46.63016,-23.48277],[-46.63583,-23.48346],[-46.63811,-23.48563],[-46.64011,-23.48665],[-46.64546,-23.48704],[-46.64772,-23.48822],[-46.65123,-23.48881],[-46.65247,-23.48751],[-46.6532,-23.48447],[-46.65533,-23.48169],[-46.65415,-23.48087],[-46.65416,-23.48029],[-46.65091,-23.47891],[-46.65042,-23.47722],[-46.6505,-23.47584],[-46.6499,-23.47473],[-46.64983,-23.47383],[-46.65037,-23.47257],[-46.65132,-23.47176],[-46.65147,-23.47122],[-46.64855,-23.4699],[-46.64588,-23.46942],[-46.64843,-23.46464],[-46.64889,-23.46457],[-46.64769,-23.46229],[-46.64742,-23.46041],[-46.64851,-23.45882],[-46.64889,-23.45685],[-46.64981,-23.4557],[-46.65228,-23.45414],[-46.65178,-23.45103],[-46.65291,-23.44904],[-46.65215,-23.44815],[-46.65231,-23.44665],[-46.65265,-23.44625],[-46.65385,-23.44603],[-46.65425,-23.44484],[-46.65341,-23.44319],[-46.65413,-23.44212],[-46.65497,-23.43964],[-46.65419,-23.43813],[-46.6527,-23.43755],[-46.65215,-23.43694],[-46.65177,-23.43577],[-46.6511,-23.43498],[-46.65111,-23.43274],[-46.65158,-23.43179],[-46.65294,-23.43064],[-46.65403,-23.43086],[-46.6547,-23.43063]]]}},{"type":"Feature","properties":{"id":"JAÇANÃ","nome":"Jaçanã"},"geometry":{"type":"Polygon","coordinates":[[[-46.56113,-23.48727],[-46.56476,-23.48486],[-46.57174,-23.47231],[-46.57214,-23.47273],[-46.57337,-23.47283],[-46.57401,-23.4733],[-46.57577,-23.47324],[-46.57758,-23.4739],[-46.57923,-23.47398],[-46.58149,-23.47563],[-46.5835,-23.47809],[-46.58483,-23.477],[-46.58457,-23.47546],[-46.58512,-23.47393],[-46.58922,-23.46987],[-46.5897,-23.47006],[-46.59029,-23.46817],[-46.5922,-23.46866],[-46.59382,-23.46803],[-46.59556,-23.46679],[-46.59493,-23.46575],[-46.59377,-23.46594],[-46.59078,-23.46342],[-46.58946,-23.46396],[-46.58844,-23.46387],[-46.58499,-23.45875],[-46.58208,-23.45708],[-46.58632,-23.45625],[-46.58616,-23.45541],[-46.58584,-23.45546],[-46.5857,-23.45512],[-46.58509,-23.45526],[-46.58156,-23.45128],[-46.58061,-23.45077],[-46.5794,-23.44874],[-46.57959,-23.44826],[-46.57823,-23.44704],[-46.57862,-23.44658],[-46.57765,-23.44619],[-46.57786,-23.445],[-46.57764,-23.44362],[-46.57675,-23.44277],[-46.57619,-23.44124],[-46.57708,-23.44042],[-46.57694,-23.43961],[-46.57778,-23.43778],[-46.57748,-23.43721],[-46.57772,-23.43638],[-46.5763,-23.43584],[-46.57433,-23.43595],[-46.57204,-23.43516],[-46.57153,-23.43569],[-46.57134,-23.43548],[-46.57066,-23.43593],[-46.56999,-23.43512],[-46.56913,-23.43571],[-46.56857,-23.43526],[-46.56961,-23.43195],[-46.57109,-23.42898],[-46.57005,-23.42871],[-46.56813,-23.4291],[-46.56711,-23.43024],[-46.56843,-23.43269],[-46.56748,-23.43309],[-46.56655,-23.43505],[-46.56478,-23.43594],[-46.56534,-23.43881],[-46.56531,-23.44145],[-46.56674,-23.44232],[-46.56703,-23.44658],[-46.56797,-23.44775],[-46.56867,-23.44948],[-46.56827,-23.45047],[-46.56847,-23.45151],[-46.57036,-23.45366],[-46.5703,-23.45608],[-46.57073,-23.45707],[-46.57058,-23.45848],[-46.57036,-23.45941],[-46.56929,-23.46071],[-46.56785,-23.46458],[-46.56663,-23.46566],[-46.5657,-23.4674],[-46.56554,-23.46847],[-46.56348,-23.47049],[-46.5617,-23.47283],[-46.56167,-23.47472],[-46.56098,-23.47577],[-46.56076,-23.47726],[-46.56135,-23.47947],[-46.56104,-23.48146],[-46.56152,-23.48456],[-46.56113,-23.48727]]]}},{"type":"Feature","properties":{"id":"TREMEMBÉ","nome":"Tremembé"},"geometry":{"type":"Polygon","coordinates":[[[-46.59556,-23.46679],[-46.59825,-23.46533],[-46.59938,-23.46519],[-46.60066,-23.46387],[-46.60235,-23.46379],[-46.60332,-23.46289],[-46.60341,-23.4631],[-46.60445,-23.46256],[-46.60501,-23.46298],[-46.60968,-23.46368],[-46.61071,-23.46418],[-46.61218,-23.46215],[-46.61314,-23.46174],[-46.6135,-23.46215],[-46.61427,-23.46191],[-46.61559,-23.46401],[-46.6167,-23.46378],[-46.61667,-23.46461],[-46.61944,-23.46347],[-46.62254,-23.46362],[-46.62471,-23.46276],[-46.62754,-23.46384],[-46.62861,-23.46263],[-46.63011,-23.4618],[-46.63024,-23.46048],[-46.63081,-23.45982],[-46.63353,-23.45924],[-46.63428,-23.45677],[-46.63592,-23.45462],[-46.63682,-23.45252],[-46.63646,-23.45147],[-46.6367,-23.45006],[-46.63597,-23.44902],[-46.6366,-23.4483],[-46.63759,-23.44841],[-46.63789,-23.44775],[-46.6377,-23.44673],[-46.63669,-23.44569],[-46.6366,-23.4451],[-46.63558,-23.44378],[-46.63349,-23.44234],[-46.63158,-23.4394],[-46.63186,-23.43787],[-46.63294,-23.43731],[-46.63268,-23.43555],[-46.63415,-23.43312],[-46.63384,-23.4316],[-46.63425,-23.431],[-46.63385,-23.4302],[-46.6338,-23.42829],[-46.63138,-23.42804],[-46.6309,-23.42597],[-46.62935,-23.42549],[-46.62876,-23.4244],[-46.62696,-23.42311],[-46.62616,-23.42282],[-46.62285,-23.42275],[-46.62181,-23.42225],[-46.62123,-23.42083],[-46.62237,-23.41874],[-46.62312,-23.41655],[-46.62296,-23.41631],[-46.62006,-23.41716],[-46.61975,-23.41843],[-46.61994,-23.4191],[-46.61852,-23.41806],[-46.61711,-23.41833],[-46.61585,-23.41747],[-46.61517,-23.41765],[-46.61485,-23.41817],[-46.61305,-23.41788],[-46.61306,-23.41729],[-46.61246,-23.4172],[-46.61252,-23.41642],[-46.6129,-23.41558],[-46.61404,-23.41473],[-46.61386,-23.41383],[-46.61431,-23.41169],[-46.61345,-23.41089],[-46.61106,-23.41017],[-46.61195,-23.40686],[-46.60942,-23.4029],[-46.60886,-23.40097],[-46.6074,-23.3999],[-46.606,-23.39737],[-46.60465,-23.39699],[-46.60391,-23.39644],[-46.60182,-23.39683],[-46.60011,-23.39622],[-46.59919,-23.39531],[-46.59876,-23.394],[-46.59877,-23.39225],[-46.59934,-23.39133],[-46.60079,-23.39066],[-46.60108,-23.38916],[-46.60086,-23.38851],[-46.59839,-23.38714],[-46.59708,-23.38588],[-46.59322,-23.38539],[-46.58972,-23.38265],[-46.58815,-23.38099],[-46.58587,-23.38021],[-46.5839,-23.37888],[-46.583,-23.37726],[-46.58094,-23.3769],[-46.58057,-23.37576],[-46.58061,-23.37225],[-46.58028,-23.37216],[-46.57932,-23.37363],[-46.57607,-23.37372],[-46.57482,-23.37414],[-46.57389,-23.37508],[-46.57236,-23.37539],[-46.57184,-23.37582],[-46.56975,-23.37589],[-46.56899,-23.37549],[-46.56826,-23.37368],[-46.56556,-23.37097],[-46.56406,-23.36995],[-46.56057,-23.36841],[-46.55717,-23.36467],[-46.55556,-23.36419],[-46.55495,-23.36274],[-46.55348,-23.36119],[-46.55172,-23.35751],[-46.54939,-23.35659],[-46.5476,-23.35796],[-46.54648,-23.35806],[-46.54479,-23.35764],[-46.54264,-23.35842],[-46.54091,-23.36073],[-46.53977,-23.36105],[-46.53874,-23.36229],[-46.53602,-23.36346],[-46.53771,-23.36658],[-46.5373,-23.3685],[-46.53743,-23.36928],[-46.53876,-23.36994],[-46.53905,-23.37105],[-46.53987,-23.37191],[-46.54261,-23.37416],[-46.54423,-23.37495],[-46.54529,-23.37613],[-46.54539,-23.37786],[-46.5447,-23.3803],[-46.54495,-23.38221],[-46.54463,-23.38396],[-46.54587,-23.38562],[-46.54598,-23.38645],[-46.54729,-23.38752],[-46.54886,-23.38958],[-46.5527,-23.39269],[-46.55386,-23.39465],[-46.55719,-23.39825],[-46.55982,-23.39947],[-46.56033,-23.40018],[-46.56023,-23.4007],[-46.55936,-23.40082],[-46.55804,-23.40154],[-46.55637,-23.40334],[-46.55624,-23.40448],[-46.55667,-23.40527],[-46.55628,-23.40663],[-46.55674,-23.40737],[-46.55633,-23.40884],[-46.55788,-23.41087],[-46.55975,-23.41066],[-46.56071,-23.41181],[-46.56211,-23.41195],[-46.56661,-23.41539],[-46.56767,-23.4187],[-46.56693,-23.41915],[-46.56647,-23.42034],[-46.56675,-23.42196],[-46.56648,-23.42365],[-46.56576,-23.42428],[-46.5663,-23.42532],[-46.56569,-23.42626],[-46.56573,-23.42735],[-46.56697,-23.42926],[-46.56711,-23.43024],[-46.56813,-23.4291],[-46.56912,-23.4287],[-46.57109,-23.42898],[-46.56961,-23.43195],[-46.56857,-23.43526],[-46.56913,-23.43571],[-46.56999,-23.43512],[-46.57066,-23.43593],[-46.57134,-23.43548],[-46.57153,-23.43569],[-46.57204,-23.43516],[-46.57433,-23.43595],[-46.5763,-23.43584],[-46.57772,-23.43638],[-46.57748,-23.43721],[-46.57778,-23.43778],[-46.57694,-23.43961],[-46.57708,-23.44042],[-46.57619,-23.44124],[-46.57675,-23.44277],[-46.57764,-23.44362],[-46.57786,-23.445],[-46.57765,-23.44619],[-46.57862,-23.44658],[-46.57823,-23.44704],[-46.57959,-23.44826],[-46.5794,-23.44874],[-46.58061,-23.45077],[-46.58156,-23.45128],[-46.58509,-23.45526],[-46.5857,-23.45512],[-46.58584,-23.45546],[-46.58616,-23.45541],[-46.58638,-23.45622],[-46.58208,-23.45708],[-46.58499,-23.45875],[-46.58844,-23.46387],[-46.58946,-23.46396],[-46.59078,-23.46342],[-46.59377,-23.46594],[-46.59493,-23.46575],[-46.59556,-23.46679]]]}},{"type":"Feature","properties":{"id":"CASA VERDE","nome":"Casa Verde"},"geometry":{"type":"Polygon","coordinates":[[[-46.6628,-23.48325],[-46.66188,-23.48206],[-46.66073,-23.4824],[-46.65924,-23.4837],[-46.65597,-23.48177],[-46.65506,-23.48188],[-46.6532,-23.48447],[-46.65247,-23.48751],[-46.65123,-23.48881],[-46.65079,-23.49026],[-46.64832,-23.49313],[-46.64874,-23.49399],[-46.64525,-23.49605],[-46.64349,-23.50126],[-46.64112,-23.5049],[-46.64335,-23.50649],[-46.6498,-23.50779],[-46.64903,-23.50834],[-46.65016,-23.50886],[-46.64948,-23.50971],[-46.65061,-23.50997],[-46.64984,-23.51556],[-46.65379,-23.51594],[-46.65391,-23.51678],[-46.67111,-23.51469],[-46.67062,-23.50718],[-46.66885,-23.50545],[-46.66829,-23.50423],[-46.66465,-23.49992],[-46.66396,-23.49839],[-46.66658,-23.49642],[-46.66733,-23.49163],[-46.66664,-23.49151],[-46.66557,-23.49008],[-46.66581,-23.48908],[-46.66479,-23.48745],[-46.66494,-23.48596],[-46.66405,-23.4842],[-46.6628,-23.48325]]]}},{"type":"Feature","properties":{"id":"LIMÃO","nome":"Limão"},"geometry":{"type":"Polygon","coordinates":[[[-46.67363,-23.48004],[-46.67309,-23.48014],[-46.67303,-23.48222],[-46.66736,-23.48156],[-46.66552,-23.48218],[-46.66424,-23.48304],[-46.6628,-23.48325],[-46.66405,-23.4842],[-46.66494,-23.48596],[-46.66479,-23.48745],[-46.66581,-23.48908],[-46.66557,-23.49008],[-46.66664,-23.49151],[-46.66733,-23.49163],[-46.66658,-23.49642],[-46.66396,-23.49839],[-46.66465,-23.49992],[-46.66829,-23.50423],[-46.66885,-23.50545],[-46.67062,-23.50718],[-46.67111,-23.51469],[-46.67813,-23.51366],[-46.68033,-23.5126],[-46.68343,-23.51033],[-46.68976,-23.50903],[-46.68871,-23.50446],[-46.6848,-23.49708],[-46.68559,-23.4917],[-46.68509,-23.48985],[-46.67923,-23.4834],[-46.67437,-23.48095],[-46.67363,-23.48004]]]}},{"type":"Feature","properties":{"id":"CACHOEIRINHA","nome":"Cachoeirinha"},"geometry":{"type":"Polygon","coordinates":[[[-46.65533,-23.48169],[-46.65603,-23.4818],[-46.65926,-23.4837],[-46.66073,-23.4824],[-46.66188,-23.48206],[-46.6628,-23.48325],[-46.66424,-23.48304],[-46.66552,-23.48218],[-46.66736,-23.48156],[-46.67304,-23.48221],[-46.67309,-23.48014],[-46.67363,-23.48004],[-46.67269,-23.47671],[-46.67236,-23.47613],[-46.67056,-23.4751],[-46.67022,-23.47444],[-46.67064,-23.47039],[-46.6703,-23.46781],[-46.67071,-23.46629],[-46.67261,-23.46351],[-46.67331,-23.46023],[-46.67515,-23.45817],[-46.67525,-23.45581],[-46.6742,-23.45284],[-46.6755,-23.45037],[-46.67324,-23.44685],[-46.6725,-23.44639],[-46.67218,-23.44494],[-46.67248,-23.44449],[-46.67185,-23.44414],[-46.67203,-23.44264],[-46.67097,-23.44228],[-46.66974,-23.4408],[-46.66974,-23.44007],[-46.67042,-23.43938],[-46.66902,-23.4364],[-46.66907,-23.4349],[-46.66766,-23.43387],[-46.66442,-23.43315],[-46.66351,-23.43143],[-46.66419,-23.42959],[-46.66493,-23.42901],[-46.6675,-23.42989],[-46.66885,-23.43003],[-46.66931,-23.4297],[-46.66995,-23.42721],[-46.67117,-23.42727],[-46.67237,-23.4261],[-46.67386,-23.42426],[-46.67404,-23.4233],[-46.67475,-23.42212],[-46.67595,-23.42078],[-46.67595,-23.41973],[-46.67695,-23.41902],[-46.6774,-23.41784],[-46.67719,-23.41592],[-46.67763,-23.41499],[-46.6767,-23.4151],[-46.67542,-23.41628],[-46.67562,-23.41704],[-46.67239,-23.41896],[-46.6713,-23.41918],[-46.66985,-23.41844],[-46.66871,-23.41882],[-46.66665,-23.42053],[-46.66514,-23.42298],[-46.66361,-23.42461],[-46.66174,-23.42485],[-46.66007,-23.42643],[-46.65857,-23.42671],[-46.65856,-23.42803],[-46.65699,-23.43031],[-46.65577,-23.43079],[-46.65299,-23.43062],[-46.6512,-23.43245],[-46.6512,-23.43521],[-46.65177,-23.43577],[-46.65227,-23.43711],[-46.65419,-23.43813],[-46.65498,-23.43969],[-46.65413,-23.44212],[-46.65341,-23.44319],[-46.65425,-23.44484],[-46.65385,-23.44603],[-46.65265,-23.44625],[-46.65231,-23.44665],[-46.65215,-23.44815],[-46.65291,-23.44904],[-46.65178,-23.45103],[-46.65228,-23.45414],[-46.64981,-23.4557],[-46.64889,-23.45685],[-46.64851,-23.45882],[-46.64742,-23.46041],[-46.64769,-23.46229],[-46.64889,-23.46457],[-46.64843,-23.46464],[-46.64588,-23.46942],[-46.64855,-23.4699],[-46.65147,-23.47122],[-46.65132,-23.47176],[-46.65037,-23.47257],[-46.64983,-23.47383],[-46.6499,-23.47473],[-46.6505,-23.47584],[-46.65042,-23.47722],[-46.65091,-23.47891],[-46.65416,-23.48029],[-46.65415,-23.48087],[-46.65533,-23.48169]]]}},{"type":"Feature","properties":{"id":"FREGUESIA DO Ó","nome":"Freguesia do Ó"},"geometry":{"type":"Polygon","coordinates":[[[-46.68976,-23.50903],[-46.69661,-23.50802],[-46.70579,-23.50873],[-46.70721,-23.49782],[-46.70992,-23.49318],[-46.71095,-23.48681],[-46.71066,-23.4859],[-46.7084,-23.48289],[-46.70839,-23.48125],[-46.70739,-23.47823],[-46.71047,-23.47587],[-46.7107,-23.47445],[-46.71007,-23.4733],[-46.71103,-23.47158],[-46.7107,-23.46999],[-46.71167,-23.46962],[-46.71186,-23.46903],[-46.71142,-23.46799],[-46.71147,-23.46711],[-46.71367,-23.46414],[-46.71437,-23.46231],[-46.71157,-23.46108],[-46.71078,-23.46164],[-46.70807,-23.46173],[-46.7051,-23.46135],[-46.70427,-23.46174],[-46.70387,-23.46152],[-46.7014,-23.46281],[-46.70134,-23.46354],[-46.69729,-23.46839],[-46.69768,-23.4692],[-46.69681,-23.47015],[-46.69662,-23.47287],[-46.69631,-23.47289],[-46.696,-23.474],[-46.69623,-23.47543],[-46.69567,-23.47643],[-46.69536,-23.47794],[-46.69411,-23.47758],[-46.69345,-23.47799],[-46.69104,-23.47773],[-46.68855,-23.478],[-46.68866,-23.47844],[-46.68688,-23.47864],[-46.68645,-23.47898],[-46.68652,-23.47929],[-46.68591,-23.47946],[-46.68649,-23.4809],[-46.68441,-23.48137],[-46.68285,-23.48099],[-46.68271,-23.48133],[-46.68211,-23.48044],[-46.68274,-23.47855],[-46.6814,-23.47729],[-46.67966,-23.47695],[-46.67627,-23.4772],[-46.67499,-23.47639],[-46.67287,-23.4743],[-46.67099,-23.4744],[-46.67025,-23.47408],[-46.67055,-23.47509],[-46.67261,-23.47651],[-46.67398,-23.48065],[-46.67911,-23.48331],[-46.68504,-23.48976],[-46.68559,-23.4917],[-46.6848,-23.49708],[-46.68871,-23.50446],[-46.68976,-23.50903]]]}},{"type":"Feature","properties":{"id":"BRASILÂNDIA","nome":"Brasilândia"},"geometry":{"type":"Polygon","coordinates":[[[-46.71437,-23.46231],[-46.71544,-23.46053],[-46.7155,-23.45972],[-46.7149,-23.45796],[-46.71362,-23.45603],[-46.71049,-23.45287],[-46.70865,-23.4524],[-46.70723,-23.45135],[-46.70724,-23.45051],[-46.70662,-23.44971],[-46.70636,-23.446],[-46.70726,-23.44499],[-46.70955,-23.44405],[-46.71064,-23.44324],[-46.71141,-23.44237],[-46.71177,-23.44046],[-46.71064,-23.43939],[-46.70882,-23.43894],[-46.70837,-23.43849],[-46.70816,-23.43744],[-46.70768,-23.4371],[-46.70744,-23.43755],[-46.70628,-23.43725],[-46.70403,-23.43832],[-46.70323,-23.43835],[-46.70335,-23.43506],[-46.7029,-23.43148],[-46.7036,-23.42643],[-46.70368,-23.42321],[-46.70343,-23.42255],[-46.70072,-23.42218],[-46.69942,-23.42358],[-46.69699,-23.42438],[-46.69539,-23.4244],[-46.69308,-23.42322],[-46.69167,-23.42331],[-46.68918,-23.4257],[-46.68736,-23.42695],[-46.68675,-23.42697],[-46.68581,-23.42561],[-46.68545,-23.42307],[-46.68474,-23.42179],[-46.68558,-23.42043],[-46.68492,-23.4191],[-46.68355,-23.41868],[-46.68179,-23.41735],[-46.67936,-23.41673],[-46.67763,-23.41499],[-46.67719,-23.41592],[-46.67737,-23.41807],[-46.6768,-23.41925],[-46.67595,-23.41973],[-46.67595,-23.42078],[-46.6743,-23.42283],[-46.67386,-23.42426],[-46.67172,-23.42686],[-46.67117,-23.42727],[-46.66995,-23.42721],[-46.66921,-23.42981],[-46.66885,-23.43003],[-46.66735,-23.42987],[-46.665,-23.429],[-46.66423,-23.42953],[-46.66352,-23.43136],[-46.66395,-23.43261],[-46.66483,-23.43334],[-46.66624,-23.4334],[-46.66773,-23.43389],[-46.66907,-23.4349],[-46.66902,-23.4364],[-46.67042,-23.43938],[-46.66974,-23.44007],[-46.66974,-23.4408],[-46.67097,-23.44228],[-46.67203,-23.44264],[-46.67185,-23.44414],[-46.67248,-23.44449],[-46.67218,-23.44494],[-46.6725,-23.44639],[-46.67324,-23.44685],[-46.6755,-23.45037],[-46.6742,-23.45284],[-46.67525,-23.45581],[-46.67515,-23.45817],[-46.67331,-23.46023],[-46.67256,-23.46363],[-46.67041,-23.46709],[-46.67064,-23.47039],[-46.6703,-23.47416],[-46.67099,-23.4744],[-46.67287,-23.4743],[-46.67499,-23.47639],[-46.67627,-23.4772],[-46.67966,-23.47695],[-46.6814,-23.47729],[-46.68274,-23.47855],[-46.68211,-23.48044],[-46.68271,-23.48133],[-46.68285,-23.48099],[-46.68441,-23.48137],[-46.68649,-23.4809],[-46.68591,-23.47946],[-46.68652,-23.47929],[-46.68645,-23.47898],[-46.68688,-23.47864],[-46.68866,-23.47844],[-46.68855,-23.478],[-46.69104,-23.47773],[-46.69345,-23.47799],[-46.69411,-23.47758],[-46.69536,-23.47794],[-46.69567,-23.47643],[-46.69623,-23.47543],[-46.696,-23.474],[-46.69631,-23.47289],[-46.69662,-23.47287],[-46.69681,-23.47015],[-46.69768,-23.4692],[-46.69729,-23.46839],[-46.70134,-23.46354],[-46.7014,-23.46281],[-46.70387,-23.46152],[-46.70427,-23.46174],[-46.7051,-23.46135],[-46.70807,-23.46173],[-46.71078,-23.46164],[-46.71157,-23.46108],[-46.71437,-23.46231]]]}},{"type":"Feature","properties":{"id":"VILA MARIA","nome":"Vila Maria"},"geometry":{"type":"Polygon","coordinates":[[[-46.5555,-23.51002],[-46.55612,-23.51169],[-46.5565,-23.51428],[-46.55571,-23.51869],[-46.55577,-23.52014],[-46.55693,-23.52206],[-46.55871,-23.52322],[-46.56395,-23.52348],[-46.56529,-23.52381],[-46.57021,-23.52616],[-46.57221,-23.52644],[-46.57539,-23.52616],[-46.57719,-23.52634],[-46.59101,-23.52984],[-46.59257,-23.52985],[-46.59469,-23.52931],[-46.59708,-23.52762],[-46.59533,-23.52526],[-46.59607,-23.52366],[-46.59633,-23.52212],[-46.59533,-23.5201],[-46.59515,-23.51079],[-46.59493,-23.51079],[-46.5949,-23.51011],[-46.59543,-23.50818],[-46.59687,-23.50599],[-46.59601,-23.50404],[-46.59354,-23.50226],[-46.59324,-23.50003],[-46.59225,-23.50041],[-46.58997,-23.49912],[-46.5886,-23.49889],[-46.58474,-23.49513],[-46.58295,-23.4948],[-46.57721,-23.49551],[-46.57102,-23.50138],[-46.57062,-23.50146],[-46.57062,-23.5024],[-46.56991,-23.50314],[-46.56854,-23.50393],[-46.56217,-23.49961],[-46.55945,-23.50423],[-46.55954,-23.50584],[-46.55913,-23.50712],[-46.5555,-23.51002]]]}},{"type":"Feature","properties":{"id":"VILA GUILHERME","nome":"Vila Guilherme"},"geometry":{"type":"Polygon","coordinates":[[[-46.60462,-23.52278],[-46.60932,-23.52337],[-46.61135,-23.52298],[-46.61239,-23.52256],[-46.61671,-23.51937],[-46.61893,-23.51884],[-46.61891,-23.51728],[-46.62104,-23.51439],[-46.62117,-23.51152],[-46.61611,-23.50904],[-46.61538,-23.50822],[-46.615,-23.50442],[-46.61548,-23.50118],[-46.61242,-23.49703],[-46.61151,-23.49258],[-46.60641,-23.49314],[-46.59941,-23.49172],[-46.59768,-23.49273],[-46.59824,-23.49603],[-46.59699,-23.49679],[-46.59691,-23.49815],[-46.59561,-23.49819],[-46.59319,-23.49993],[-46.59354,-23.50226],[-46.59601,-23.50404],[-46.59687,-23.50601],[-46.59543,-23.50818],[-46.59494,-23.5096],[-46.59533,-23.5201],[-46.59633,-23.52218],[-46.59607,-23.52366],[-46.59533,-23.5253],[-46.59708,-23.52762],[-46.60276,-23.52323],[-46.60462,-23.52278]]]}},{"type":"Feature","properties":{"id":"VILA MEDEIROS","nome":"Vila Medeiros"},"geometry":{"type":"Polygon","coordinates":[[[-46.56113,-23.48727],[-46.55997,-23.4898],[-46.56004,-23.49393],[-46.56065,-23.49667],[-46.56217,-23.49961],[-46.56837,-23.50394],[-46.56991,-23.50314],[-46.57062,-23.5024],[-46.57062,-23.50146],[-46.57102,-23.50138],[-46.57438,-23.49803],[-46.57759,-23.49538],[-46.58295,-23.4948],[-46.5844,-23.49501],[-46.5886,-23.49889],[-46.58997,-23.49912],[-46.59225,-23.50041],[-46.59324,-23.50003],[-46.59561,-23.49819],[-46.59691,-23.49815],[-46.59699,-23.49679],[-46.59824,-23.49603],[-46.59768,-23.49273],[-46.59941,-23.49172],[-46.59856,-23.49166],[-46.59813,-23.49111],[-46.595,-23.48941],[-46.5933,-23.4858],[-46.5915,-23.48289],[-46.59013,-23.4818],[-46.58827,-23.48105],[-46.58317,-23.47789],[-46.58149,-23.47563],[-46.58012,-23.4746],[-46.57913,-23.47395],[-46.57758,-23.4739],[-46.57577,-23.47324],[-46.57401,-23.4733],[-46.57337,-23.47283],[-46.57214,-23.47273],[-46.57174,-23.47231],[-46.56476,-23.48486],[-46.56113,-23.48727]]]}},{"type":"Feature","properties":{"id":"PIRITUBA","nome":"Pirituba"},"geometry":{"type":"Polygon","coordinates":[[[-46.71217,-23.45452],[-46.71373,-23.45615],[-46.71492,-23.45801],[-46.7155,-23.45972],[-46.71544,-23.46053],[-46.71367,-23.46414],[-46.71147,-23.46711],[-46.71142,-23.46799],[-46.71186,-23.46903],[-46.71167,-23.46962],[-46.7107,-23.46999],[-46.71103,-23.47158],[-46.71007,-23.4733],[-46.7107,-23.47445],[-46.71047,-23.47587],[-46.70739,-23.47823],[-46.70839,-23.48125],[-46.7084,-23.48289],[-46.71066,-23.4859],[-46.71095,-23.48681],[-46.70992,-23.49318],[-46.70721,-23.49782],[-46.70579,-23.50873],[-46.71747,-23.50811],[-46.7192,-23.5085],[-46.72044,-23.50935],[-46.72396,-23.50469],[-46.73016,-23.49751],[-46.73176,-23.49486],[-46.73559,-23.4908],[-46.7367,-23.48901],[-46.73747,-23.4868],[-46.73939,-23.48618],[-46.74205,-23.48431],[-46.7437,-23.48427],[-46.74574,-23.48546],[-46.74732,-23.48481],[-46.7484,-23.48523],[-46.75157,-23.48392],[-46.75369,-23.48388],[-46.75428,-23.48314],[-46.75483,-23.48336],[-46.75551,-23.48215],[-46.75519,-23.48155],[-46.75473,-23.48154],[-46.75379,-23.48071],[-46.75371,-23.47966],[-46.75293,-23.47912],[-46.75256,-23.47766],[-46.75244,-23.47544],[-46.75342,-23.47265],[-46.75317,-23.46973],[-46.75267,-23.46925],[-46.75183,-23.46925],[-46.75077,-23.46786],[-46.75092,-23.46723],[-46.74979,-23.46641],[-46.74774,-23.4657],[-46.74564,-23.46569],[-46.74582,-23.4676],[-46.74509,-23.46919],[-46.73625,-23.46254],[-46.71908,-23.45811],[-46.71945,-23.45723],[-46.72059,-23.45683],[-46.72016,-23.45439],[-46.71906,-23.4536],[-46.71862,-23.45281],[-46.71604,-23.45154],[-46.71582,-23.45067],[-46.71411,-23.45108],[-46.71195,-23.45386],[-46.71217,-23.45452]]]}},{"type":"Feature","properties":{"id":"JARAGUÁ","nome":"Jaraguá"},"geometry":{"type":"Polygon","coordinates":[[[-46.77026,-23.45337],[-46.76957,-23.45141],[-46.76986,-23.45034],[-46.76936,-23.44893],[-46.76599,-23.44677],[-46.76642,-23.44535],[-46.76613,-23.44458],[-46.76484,-23.4432],[-46.76513,-23.44004],[-46.7649,-23.43804],[-46.76432,-23.43709],[-46.76472,-23.4365],[-46.76426,-23.43554],[-46.76367,-23.43514],[-46.76337,-23.43404],[-46.76186,-23.43314],[-46.76164,-23.43181],[-46.74794,-23.431],[-46.74787,-23.43044],[-46.74743,-23.43018],[-46.74837,-23.42913],[-46.74766,-23.42863],[-46.74767,-23.42767],[-46.74798,-23.42745],[-46.74736,-23.42518],[-46.74604,-23.42471],[-46.7445,-23.42262],[-46.74327,-23.42205],[-46.74325,-23.42143],[-46.74219,-23.4217],[-46.74099,-23.42119],[-46.74,-23.4213],[-46.73842,-23.42042],[-46.73633,-23.42073],[-46.73561,-23.42025],[-46.73235,-23.42143],[-46.7301,-23.42301],[-46.72905,-23.42465],[-46.72889,-23.42429],[-46.72937,-23.42263],[-46.7287,-23.42211],[-46.72784,-23.42312],[-46.72716,-23.42343],[-46.72511,-23.42269],[-46.7238,-23.42293],[-46.7231,-23.42338],[-46.72445,-23.42397],[-46.72441,-23.42474],[-46.72416,-23.42482],[-46.72433,-23.42528],[-46.7233,-23.42639],[-46.72322,-23.4273],[-46.72263,-23.42751],[-46.71815,-23.42623],[-46.71772,-23.42517],[-46.71684,-23.42442],[-46.71696,-23.42346],[-46.71649,-23.42219],[-46.71527,-23.42177],[-46.71198,-23.42156],[-46.71138,-23.42122],[-46.71054,-23.42149],[-46.70895,-23.42134],[-46.70819,-23.41656],[-46.70688,-23.4164],[-46.70607,-23.41714],[-46.70407,-23.4169],[-46.70206,-23.41738],[-46.70144,-23.41805],[-46.70072,-23.42218],[-46.70327,-23.42247],[-46.70368,-23.42321],[-46.70359,-23.42658],[-46.7029,-23.43148],[-46.70335,-23.43506],[-46.70323,-23.43835],[-46.70403,-23.43832],[-46.70628,-23.43725],[-46.70744,-23.43755],[-46.70768,-23.4371],[-46.70816,-23.43744],[-46.70837,-23.43849],[-46.70882,-23.43894],[-46.71064,-23.43939],[-46.71174,-23.44041],[-46.71185,-23.44097],[-46.71141,-23.44237],[-46.71064,-23.44324],[-46.70955,-23.44405],[-46.70723,-23.44501],[-46.70631,-23.44619],[-46.70665,-23.4499],[-46.70724,-23.45051],[-46.70723,-23.45135],[-46.70865,-23.4524],[-46.71033,-23.45274],[-46.71183,-23.45444],[-46.71217,-23.45452],[-46.71195,-23.45386],[-46.71411,-23.45108],[-46.71582,-23.45067],[-46.71604,-23.45154],[-46.71862,-23.45281],[-46.71906,-23.4536],[-46.72016,-23.45439],[-46.72059,-23.45683],[-46.71945,-23.45723],[-46.71908,-23.45811],[-46.73625,-23.46254],[-46.74509,-23.46919],[-46.74582,-23.4676],[-46.74564,-23.46569],[-46.74723,-23.46562],[-46.7492,-23.46609],[-46.75092,-23.46723],[-46.75077,-23.46786],[-46.75183,-23.46925],[-46.75267,-23.46925],[-46.75314,-23.46966],[-46.75326,-23.4732],[-46.75442,-23.47373],[-46.75677,-23.47315],[-46.76041,-23.47279],[-46.76185,-23.4737],[-46.76453,-23.47434],[-46.76615,-23.47641],[-46.76805,-23.47677],[-46.76897,-23.47804],[-46.76963,-23.47802],[-46.7698,-23.47842],[-46.77041,-23.4784],[-46.7702,-23.47647],[-46.77103,-23.47477],[-46.77213,-23.47392],[-46.77519,-23.4727],[-46.7748,-23.47143],[-46.7749,-23.47044],[-46.77562,-23.46942],[-46.77582,-23.46769],[-46.77532,-23.46584],[-46.7753,-23.4539],[-46.77159,-23.45298],[-46.77026,-23.45337]]]}},{"type":"Feature","properties":{"id":"SÃO DOMINGOS","nome":"São Domingos"},"geometry":{"type":"Polygon","coordinates":[[[-46.76453,-23.47434],[-46.76185,-23.4737],[-46.76027,-23.47276],[-46.75442,-23.47373],[-46.75326,-23.4732],[-46.75244,-23.47544],[-46.75255,-23.47763],[-46.75293,-23.47912],[-46.75371,-23.47966],[-46.75379,-23.48071],[-46.75545,-23.48192],[-46.75547,-23.48252],[-46.75483,-23.48336],[-46.75428,-23.48314],[-46.75362,-23.48389],[-46.75157,-23.48392],[-46.74844,-23.48522],[-46.74732,-23.48481],[-46.74574,-23.48546],[-46.74385,-23.48432],[-46.74226,-23.48426],[-46.73939,-23.48618],[-46.73747,-23.4868],[-46.7367,-23.48901],[-46.73559,-23.4908],[-46.73176,-23.49486],[-46.73016,-23.49751],[-46.72396,-23.50469],[-46.72044,-23.50935],[-46.72264,-23.51218],[-46.72361,-23.51309],[-46.72637,-23.51469],[-46.72731,-23.51182],[-46.72814,-23.51073],[-46.7295,-23.50971],[-46.73129,-23.50893],[-46.73365,-23.50847],[-46.74895,-23.50721],[-46.75021,-23.50687],[-46.75137,-23.50613],[-46.75421,-23.50231],[-46.75464,-23.49689],[-46.75536,-23.49528],[-46.7576,-23.49444],[-46.76298,-23.49432],[-46.76533,-23.49313],[-46.76662,-23.49136],[-46.76831,-23.48676],[-46.77101,-23.48286],[-46.77119,-23.48118],[-46.77041,-23.4784],[-46.76897,-23.47804],[-46.76805,-23.47677],[-46.76615,-23.47641],[-46.76453,-23.47434]]]}},{"type":"Feature","properties":{"id":"PERUS","nome":"Perus"},"geometry":{"type":"Polygon","coordinates":[[[-46.78599,-23.40501],[-46.78519,-23.40406],[-46.78347,-23.40417],[-46.78264,-23.40349],[-46.78297,-23.40179],[-46.78418,-23.39975],[-46.78347,-23.39874],[-46.78222,-23.39901],[-46.78105,-23.39805],[-46.78025,-23.39847],[-46.77645,-23.39884],[-46.77628,-23.39858],[-46.77734,-23.39802],[-46.77736,-23.39774],[-46.77529,-23.39683],[-46.77433,-23.39719],[-46.7728,-23.39693],[-46.77091,-23.39747],[-46.77101,-23.39541],[-46.77044,-23.39491],[-46.77024,-23.39368],[-46.77036,-23.39312],[-46.77099,-23.39305],[-46.77006,-23.39215],[-46.77017,-23.39172],[-46.77056,-23.39162],[-46.77029,-23.38887],[-46.7692,-23.38826],[-46.76839,-23.38928],[-46.76788,-23.38925],[-46.76769,-23.38843],[-46.76814,-23.38771],[-46.76757,-23.38688],[-46.76615,-23.38672],[-46.76424,-23.38489],[-46.76384,-23.38513],[-46.76443,-23.38622],[-46.76301,-23.38628],[-46.76147,-23.38712],[-46.76039,-23.38598],[-46.75985,-23.38663],[-46.75831,-23.38636],[-46.75684,-23.3866],[-46.75532,-23.38733],[-46.75455,-23.38729],[-46.75329,-23.38916],[-46.75167,-23.39015],[-46.75088,-23.39022],[-46.74968,-23.38954],[-46.74753,-23.38968],[-46.74726,-23.38934],[-46.74633,-23.38963],[-46.74345,-23.38927],[-46.7418,-23.38954],[-46.74064,-23.38918],[-46.73794,-23.38902],[-46.73552,-23.38814],[-46.73478,-23.3887],[-46.73351,-23.39121],[-46.73184,-23.39308],[-46.73009,-23.39341],[-46.72922,-23.39442],[-46.72523,-23.39482],[-46.72288,-23.3959],[-46.72171,-23.39593],[-46.72128,-23.39713],[-46.72035,-23.39752],[-46.72026,-23.39811],[-46.71965,-23.39877],[-46.72042,-23.40207],[-46.72009,-23.40259],[-46.72017,-23.4033],[-46.71708,-23.40686],[-46.71574,-23.4075],[-46.71386,-23.40742],[-46.71112,-23.4062],[-46.71064,-23.40623],[-46.70974,-23.40781],[-46.70935,-23.40956],[-46.70941,-23.41498],[-46.70819,-23.41656],[-46.70873,-23.4209],[-46.7094,-23.42146],[-46.71138,-23.42122],[-46.71198,-23.42156],[-46.71527,-23.42177],[-46.71649,-23.42219],[-46.71696,-23.42346],[-46.71684,-23.42442],[-46.71772,-23.42517],[-46.71815,-23.42623],[-46.72287,-23.42752],[-46.72326,-23.42724],[-46.72334,-23.42632],[-46.72433,-23.42528],[-46.72416,-23.42482],[-46.72441,-23.42474],[-46.72445,-23.42397],[-46.7231,-23.42338],[-46.72376,-23.42294],[-46.72511,-23.42269],[-46.72716,-23.42343],[-46.72784,-23.42312],[-46.7287,-23.42211],[-46.72937,-23.42263],[-46.72889,-23.42429],[-46.72905,-23.42465],[-46.7301,-23.42301],[-46.73272,-23.42122],[-46.73561,-23.42025],[-46.73633,-23.42073],[-46.73842,-23.42042],[-46.74,-23.4213],[-46.74099,-23.42119],[-46.74219,-23.4217],[-46.74325,-23.42143],[-46.74327,-23.42205],[-46.7445,-23.42262],[-46.74604,-23.42471],[-46.74727,-23.42502],[-46.74798,-23.42745],[-46.74767,-23.42767],[-46.74766,-23.42863],[-46.74837,-23.42913],[-46.74743,-23.43018],[-46.74787,-23.43044],[-46.74794,-23.431],[-46.76164,-23.43181],[-46.76129,-23.43087],[-46.76178,-23.43023],[-46.76156,-23.42935],[-46.76217,-23.42881],[-46.7621,-23.42837],[-46.76136,-23.42817],[-46.76122,-23.42717],[-46.76141,-23.42648],[-46.76225,-23.42592],[-46.76263,-23.42513],[-46.76157,-23.4235],[-46.76363,-23.42006],[-46.765,-23.41961],[-46.76514,-23.41904],[-46.76579,-23.41861],[-46.76603,-23.41919],[-46.76782,-23.41934],[-46.77106,-23.41877],[-46.77168,-23.41803],[-46.77186,-23.41691],[-46.77258,-23.4169],[-46.77294,-23.41597],[-46.7724,-23.41469],[-46.77265,-23.41417],[-46.7736,-23.41384],[-46.77373,-23.4124],[-46.77479,-23.41146],[-46.77532,-23.41002],[-46.77644,-23.40959],[-46.77762,-23.40856],[-46.77867,-23.40688],[-46.77911,-23.40668],[-46.77909,-23.4063],[-46.78066,-23.40562],[-46.78599,-23.40501]]]}},{"type":"Feature","properties":{"id":"ANHANGUERA","nome":"Anhanguera"},"geometry":{"type":"Polygon","coordinates":[[[-46.77519,-23.4727],[-46.77804,-23.47153],[-46.77897,-23.47038],[-46.77905,-23.46914],[-46.77792,-23.4661],[-46.78659,-23.46593],[-46.79248,-23.45997],[-46.79976,-23.47224],[-46.8015,-23.47133],[-46.80046,-23.46911],[-46.80052,-23.46786],[-46.80077,-23.46721],[-46.80254,-23.46602],[-46.80288,-23.46497],[-46.80474,-23.46287],[-46.8054,-23.46256],[-46.80577,-23.4616],[-46.80551,-23.46022],[-46.80581,-23.4596],[-46.80562,-23.45866],[-46.80617,-23.45613],[-46.80603,-23.45544],[-46.80651,-23.45453],[-46.80783,-23.45362],[-46.80776,-23.453],[-46.80869,-23.45191],[-46.8091,-23.44996],[-46.80885,-23.449],[-46.80935,-23.44804],[-46.80899,-23.44613],[-46.80977,-23.44468],[-46.80957,-23.44278],[-46.81028,-23.44161],[-46.8117,-23.44052],[-46.81152,-23.4389],[-46.81193,-23.43648],[-46.81239,-23.43625],[-46.8131,-23.43473],[-46.81359,-23.43478],[-46.81421,-23.43421],[-46.81472,-23.43429],[-46.81513,-23.43381],[-46.81576,-23.43185],[-46.81687,-23.43014],[-46.82034,-23.42862],[-46.8225,-23.42584],[-46.82248,-23.42491],[-46.82327,-23.4235],[-46.82329,-23.42243],[-46.82261,-23.42173],[-46.82241,-23.42072],[-46.82034,-23.42005],[-46.81967,-23.41799],[-46.82044,-23.41628],[-46.82045,-23.41524],[-46.82181,-23.41397],[-46.82239,-23.41193],[-46.82456,-23.41114],[-46.82624,-23.40897],[-46.82445,-23.40722],[-46.82439,-23.40601],[-46.82508,-23.40507],[-46.82512,-23.40433],[-46.8248,-23.40374],[-46.82382,-23.40321],[-46.82388,-23.40269],[-46.82312,-23.401],[-46.82192,-23.40108],[-46.82195,-23.40162],[-46.8209,-23.40205],[-46.82119,-23.40138],[-46.81999,-23.40124],[-46.8204,-23.40053],[-46.81983,-23.40014],[-46.81928,-23.40019],[-46.81827,-23.39941],[-46.81772,-23.3998],[-46.81708,-23.39928],[-46.81445,-23.4002],[-46.8132,-23.39995],[-46.81224,-23.39876],[-46.81013,-23.39975],[-46.8079,-23.39951],[-46.80757,-23.39921],[-46.8079,-23.39879],[-46.80715,-23.39842],[-46.80777,-23.39814],[-46.80772,-23.39789],[-46.80686,-23.3979],[-46.80587,-23.3969],[-46.80502,-23.39707],[-46.80288,-23.39659],[-46.80327,-23.396],[-46.80438,-23.39561],[-46.80398,-23.39509],[-46.80299,-23.39537],[-46.80277,-23.3948],[-46.80244,-23.39536],[-46.80168,-23.39542],[-46.80065,-23.39711],[-46.79881,-23.39898],[-46.79871,-23.40019],[-46.79978,-23.4005],[-46.80067,-23.40144],[-46.79955,-23.4028],[-46.79926,-23.40286],[-46.79861,-23.40201],[-46.79808,-23.40215],[-46.79799,-23.40259],[-46.7966,-23.40276],[-46.79673,-23.402],[-46.79724,-23.40152],[-46.79645,-23.40096],[-46.79589,-23.40094],[-46.7955,-23.40035],[-46.79435,-23.40027],[-46.79373,-23.39965],[-46.79265,-23.39983],[-46.79219,-23.40094],[-46.79133,-23.40155],[-46.79128,-23.40204],[-46.79191,-23.4017],[-46.79204,-23.40246],[-46.78971,-23.40235],[-46.78931,-23.40285],[-46.78845,-23.40274],[-46.78831,-23.40333],[-46.78947,-23.40364],[-46.78825,-23.4044],[-46.78804,-23.40367],[-46.7862,-23.40502],[-46.77996,-23.40581],[-46.77909,-23.4063],[-46.77911,-23.40668],[-46.77867,-23.40688],[-46.77744,-23.40873],[-46.77644,-23.40959],[-46.7753,-23.41004],[-46.77479,-23.41146],[-46.77373,-23.4124],[-46.77359,-23.41387],[-46.77251,-23.41433],[-46.77235,-23.41497],[-46.77294,-23.41604],[-46.77252,-23.41699],[-46.77184,-23.41693],[-46.77171,-23.41795],[-46.77126,-23.4186],[-46.77014,-23.41911],[-46.76808,-23.41933],[-46.76603,-23.41919],[-46.76569,-23.41864],[-46.76514,-23.41904],[-46.765,-23.41961],[-46.76363,-23.42006],[-46.76185,-23.42264],[-46.76157,-23.42352],[-46.76225,-23.42419],[-46.76217,-23.42455],[-46.76263,-23.42513],[-46.76126,-23.427],[-46.76135,-23.42816],[-46.7621,-23.42837],[-46.76217,-23.42881],[-46.7616,-23.42913],[-46.76178,-23.43023],[-46.76129,-23.4309],[-46.76186,-23.43314],[-46.76337,-23.43404],[-46.76367,-23.43514],[-46.76426,-23.43554],[-46.76472,-23.4365],[-46.76432,-23.43709],[-46.7649,-23.43804],[-46.76513,-23.44004],[-46.76484,-23.4432],[-46.76613,-23.44458],[-46.76642,-23.44535],[-46.76599,-23.44677],[-46.76936,-23.44893],[-46.76986,-23.45034],[-46.76957,-23.45141],[-46.77026,-23.45337],[-46.77159,-23.45298],[-46.7753,-23.4539],[-46.77532,-23.46584],[-46.77582,-23.46769],[-46.77562,-23.46942],[-46.7749,-23.47044],[-46.7748,-23.47143],[-46.77519,-23.4727]]]}}]}